$$SOE
2460147.500000000, A.D. 2023-Jul-22 00:00:00.0000, 9.000882886185105E+07, -2.624012792417109E+08, 2.682974046036856E+07,
2460154.500000000, A.D. 2023-Jul-29 00:00:00.0000, 1.028115252213233E+08, -2.559414932655817E+08, 2.673780818959442E+07,
2460161.500000000, A.D. 2023-Aug-05 00:00:00.0000, 1.153796286279213E+08, -2.488980031610484E+08, 2.658489331794392E+07,
2460168.500000000, A.D. 2023-Aug-12 00:00:00.0000, 1.276802018087171E+08, -2.412776465261185E+08, 2.637035944385202E+07,
2460175.500000000, A.D. 2023-Aug-19 00:00:00.0000, 1.396802654029519E+08, -2.330896309247527E+08, 2.609378007989489E+07,
2460182.500000000, A.D. 2023-Aug-26 00:00:00.0000, 1.513470184945417E+08, -2.243455909694397E+08, 2.575495209077141E+07,
2460189.500000000, A.D. 2023-Sep-02 00:00:00.0000, 1.626480717422988E+08, -2.150596205130513E+08, 2.535390737853264E+07,
2460196.500000000, A.D. 2023-Sep-09 00:00:00.0000, 1.735516897464284E+08, -2.052482774457488E+08, 2.489092245578434E+07,
2460203.500000000, A.D. 2023-Sep-16 00:00:00.0000, 1.840270388739233E+08, -1.949305591162797E+08, 2.436652555447875E+07,
2460210.500000000, A.D. 2023-Sep-23 00:00:00.0000, 1.940444365689645E+08, -1.841278467026205E+08, 2.378150096525247E+07,
2460217.500000000, A.D. 2023-Sep-30 00:00:00.0000, 2.035755970907523E+08, -1.728638167204923E+08, 2.313689050243472E+07,
2460224.500000000, A.D. 2023-Oct-07 00:00:00.0000, 2.125938664246528E+08, -1.611643204305736E+08, 2.243399209884403E+07,
2460231.500000000, A.D. 2023-Oct-14 00:00:00.0000, 2.210744425008493E+08, -1.490572355518700E+08, 2.167435507333563E+07,
2460238.500000000, A.D. 2023-Oct-21 00:00:00.0000, 2.289945792326262E+08, -1.365722906609036E+08, 2.085977190294877E+07,
2460245.500000000, A.D. 2023-Oct-28 00:00:00.0000, 2.363337686091775E+08, -1.237408628557285E+08, 1.999226690461621E+07,
2460252.500000000, A.D. 2023-Nov-04 00:00:00.0000, 2.430738957970333E+08, -1.105957530632381E+08, 1.907408205718906E+07,
2460259.500000000, A.D. 2023-Nov-11 00:00:00.0000, 2.491993643291240E+08, -9.717094383900206E+07, 1.810766016083999E+07,
2460266.500000000, A.D. 2023-Nov-18 00:00:00.0000, 2.546971893221512E+08, -8.350134445789854E+07, 1.709562564505205E+07,
2460273.500000000, A.D. 2023-Nov-25 00:00:00.0000, 2.595570574175524E+08, -6.962252831166388E+07, 1.604076341839792E+07,
2460280.500000000, A.D. 2023-Dec-02 00:00:00.0000, 2.637713530345262E+08, -5.557046777597564E+07, 1.494599620035329E+07,
2460287.500000000, A.D. 2023-Dec-09 00:00:00.0000, 2.673351514993506E+08, -4.138127167896283E+07, 1.381436079441447E+07,
2460294.500000000, A.D. 2023-Dec-16 00:00:00.0000, 2.702461806891307E+08, -2.709093016990151E+07, 1.264898375575429E+07,
2460301.500000000, A.D. 2023-Dec-23 00:00:00.0000, 2.725047536615289E+08, -1.273507067798059E+07, 1.145305694732940E+07,
2460308.500000000, A.D. 2023-Dec-30 00:00:00.0000, 2.741136737305335E+08, 1.651272270533502E+06, 1.022981364367988E+07,
2460315.500000000, A.D. 2024-Jan-06 00:00:00.0000, 2.750781135405398E+08, 1.603386782945972E+07, 8.982505564154889E+06,
2460322.500000000, A.D. 2024-Jan-13 00:00:00.0000, 2.754054749691532E+08, 3.037947591666880E+07, 7.714380753405010E+06,
2460329.500000000, A.D. 2024-Jan-20 00:00:00.0000, 2.751052349346055E+08, 4.465601195111413E+07, 6.428662748608740E+06,
2460336.500000000, A.D. 2024-Jan-27 00:00:00.0000, 2.741887789946980E+08, 5.883268887397347E+07, 5.128531512815896E+06,
2460343.500000000, A.D. 2024-Feb-03 00:00:00.0000, 2.726692261457413E+08, 7.288013515535893E+07, 3.817106272932895E+06,
2460350.500000000, A.D. 2024-Feb-10 00:00:00.0000, 2.705612487382800E+08, 8.677048875397930E+07, 2.497430327683534E+06,
2460357.500000000, A.D. 2024-Feb-17 00:00:00.0000, 2.678808909996938E+08, 1.004774678237770E+08, 1.172457869982444E+06,
2460364.500000000, A.D. 2024-Feb-24 00:00:00.0000, 2.646453891968372E+08, 1.139764194045275E+08, -1.549571741106659E+05,
2460371.500000000, A.D. 2024-Mar-02 00:00:00.0000, 2.608729960686578E+08, 1.272443476271285E+08, -1.482070336241260E+06,
2460378.500000000, A.D. 2024-Mar-09 00:00:00.0000, 2.565828118519538E+08, 1.402599231814159E+08, -2.806253923120655E+06,
2460385.500000000, A.D. 2024-Mar-16 00:00:00.0000, 2.517946240623789E+08, 1.530034762103037E+08, -4.125002590035565E+06,
2460392.500000000, A.D. 2024-Mar-23 00:00:00.0000, 2.465287572788158E+08, 1.654569757769043E+08, -5.435937202992558E+06,
2460399.500000000, A.D. 2024-Mar-30 00:00:00.0000, 2.408059316503405E+08, 1.776039979362786E+08, -6.736806931530207E+06,
2460406.500000000, A.D. 2024-Apr-06 00:00:00.0000, 2.346471310216134E+08, 1.894296810711062E+08, -8.025490024876736E+06,
2460413.500000000, A.D. 2024-Apr-13 00:00:00.0000, 2.280734845654877E+08, 2.009206712449421E+08, -9.299993689609312E+06,
2460420.500000000, A.D. 2024-Apr-20 00:00:00.0000, 2.211061610260903E+08, 2.120650620391984E+08, -1.055845292128038E+07,
2460427.500000000, A.D. 2024-Apr-27 00:00:00.0000, 2.137662738947126E+08, 2.228523299631748E+08, -1.179912834933026E+07,
2460434.500000000, A.D. 2024-May-04 00:00:00.0000, 2.060747972746447E+08, 2.332732662238256E+08, -1.302040330622639E+07,
2460441.500000000, A.D. 2024-May-11 00:00:00.0000, 1.980524922052646E+08, 2.433199060728716E+08, -1.422078028716691E+07,
2460448.500000000, A.D. 2024-May-18 00:00:00.0000, 1.897198429564394E+08, 2.529854568991157E+08, -1.539887693124601E+07,
2460455.500000000, A.D. 2024-May-25 00:00:00.0000, 1.810970026716492E+08, 2.622642260352123E+08, -1.655342163946351E+07,
2460462.500000000, A.D. 2024-Jun-01 00:00:00.0000, 1.722037477208197E+08, 2.711515490405937E+08, -1.768324893846583E+07,
2460469.500000000, A.D. 2024-Jun-08 00:00:00.0000, 1.630594402826540E+08, 2.796437191211172E+08, -1.878729469982862E+07,
2460476.500000000, A.D. 2024-Jun-15 00:00:00.0000, 1.536829988320639E+08, 2.877379187973300E+08, -1.986459128174265E+07,
2460483.500000000, A.D. 2024-Jun-22 00:00:00.0000, 1.440928748283546E+08, 2.954321554460117E+08, -2.091426247102350E+07,
2460490.500000000, A.D. 2024-Jun-29 00:00:00.0000, 1.343070328040181E+08, 3.027251992276546E+08, -2.193551823482279E+07,
2460497.500000000, A.D. 2024-Jul-06 00:00:00.0000, 1.243429358520928E+08, 3.096165211801982E+08, -2.292764977326538E+07,
2460504.500000000, A.D. 2024-Jul-13 00:00:00.0000, 1.142175378613100E+08, 3.161062344704408E+08, -2.389002486143519E+07,
2460511.500000000, A.D. 2024-Jul-20 00:00:00.0000, 1.039472799437559E+08, 3.221950400380667E+08, -2.482208323499331E+07,
2460518.500000000, A.D. 2024-Jul-27 00:00:00.0000, 9.354808986634330E+07, 3.278841757075708E+08, -2.572333206025983E+07,
2460525.500000000, A.D. 2024-Aug-03 00:00:00.0000, 8.303538427204020E+07, 3.331753683865765E+08, -2.659334156181423E+07,
2460532.500000000, A.D. 2024-Aug-10 00:00:00.0000, 7.242407341472335E+07, 3.380707893034903E+08, -2.743174083597177E+07,
2460539.500000000, A.D. 2024-Aug-17 00:00:00.0000, 6.172856805614642E+07, 3.425730122343416E+08, -2.823821386142020E+07,
2460546.500000000, A.D. 2024-Aug-24 00:00:00.0000, 5.096278819492988E+07, 3.466849746018617E+08, -2.901249571662681E+07,
2460553.500000000, A.D. 2024-Aug-31 00:00:00.0000, 4.014017342365764E+07, 3.504099412735075E+08, -2.975436902193226E+07,
2460560.500000000, A.D. 2024-Sep-07 00:00:00.0000, 2.927369499562751E+07, 3.537514710613421E+08, -3.046366062945762E+07,
2460567.500000000, A.D. 2024-Sep-14 00:00:00.0000, 1.837586943639929E+07, 3.567133867901773E+08, -3.114023848575360E+07,
2460574.500000000, A.D. 2024-Sep-21 00:00:00.0000, 7.458771455454472E+06, 3.592997492106162E+08, -3.178400844452401E+07,
2460581.500000000, A.D. 2024-Sep-28 00:00:00.0000, -3.465954520057783E+06, 3.615148313821141E+08, -3.239491124201235E+07,
2460588.500000000, A.D. 2024-Oct-05 00:00:00.0000, -1.438708069242742E+07, 3.633630933886591E+08, -3.297291996466938E+07,
2460595.500000000, A.D. 2024-Oct-12 00:00:00.0000, -2.529378062432818E+07, 3.648491602381300E+08, -3.351803772766088E+07,
2460602.500000000, A.D. 2024-Oct-19 00:00:00.0000, -3.617561422395243E+07, 3.659778025400930E+08, -3.403029541885784E+07,
2460609.500000000, A.D. 2024-Oct-26 00:00:00.0000, -4.702251312137343E+07, 3.667539190290289E+08, -3.450974956278951E+07,
2460616.500000000, A.D. 2024-Nov-02 00:00:00.0000, -5.782476626771137E+07, 3.671825206602266E+08, -3.495648033242938E+07,
2460623.500000000, A.D. 2024-Nov-09 00:00:00.0000, -6.857300573465216E+07, 3.672687161810427E+08, -3.537058970825058E+07,
2460630.500000000, A.D. 2024-Nov-16 00:00:00.0000, -7.925819274975392E+07, 3.670176990658538E+08, -3.575219977923466E+07,
2460637.500000000, A.D. 2024-Nov-23 00:00:00.0000, -8.987160397087754E+07, 3.664347356589935E+08, -3.610145118664053E+07,
2460644.500000000, A.D. 2024-Nov-30 00:00:00.0000, -1.004048178322189E+08, 3.655251543833941E+08, -3.641850172569519E+07,
2460651.500000000, A.D. 2024-Dec-07 00:00:00.0000, -1.108497005754641E+08, 3.642943363425152E+08, -3.670352510216208E+07,
2460658.500000000, A.D. 2024-Dec-14 00:00:00.0000, -1.211983926808332E+08, 3.627477084546642E+08, -3.695670967425403E+07,
2460665.500000000, A.D. 2024-Dec-21 00:00:00.0000, -1.314432980332267E+08, 3.608907378005406E+08, -3.717825706271374E+07,
2460672.500000000, A.D. 2024-Dec-28 00:00:00.0000, -1.415770738605574E+08, 3.587289241366197E+08, -3.736838104477283E+07,
2460679.500000000, A.D. 2025-Jan-04 00:00:00.0000, -1.515926188588664E+08, 3.562677928775704E+08, -3.752730676897062E+07,
2460686.500000000, A.D. 2025-Jan-11 00:00:00.0000, -1.614830613317835E+08, 3.535128901470577E+08, -3.765526998339726E+07,
2460693.500000000, A.D. 2025-Jan-18 00:00:00.0000, -1.712417482604012E+08, 3.504697789184562E+08, -3.775251626278889E+07,
2460700.500000000, A.D. 2025-Jan-25 00:00:00.0000, -1.808622350583791E+08, 3.471440357132619E+08, -3.781930028973264E+07,
2460707.500000000, A.D. 2025-Feb-01 00:00:00.0000, -1.903382758203744E+08, 3.435412477750580E+08, -3.785588520471880E+07,
2460714.500000000, A.D. 2025-Feb-08 00:00:00.0000, -1.996638140009072E+08, 3.396670106920521E+08, -3.786254202431041E+07,
$$EOE